{
"type": "FeatureCollection",                                                                              
"features": [
{ "type": "Feature", "properties": { "amenity": "police", "name": "Abschnitt 26" }, "geometry": { "type": "Point", "coordinates": [ 13.305447, 52.4856723 ] } },
{ "type": "Feature", "properties": { "amenity": "police", "name": "Abschnitt 33" }, "geometry": { "type": "Point", "coordinates": [ 13.3536389, 52.5336632 ] } },
{ "type": "Feature", "properties": { "amenity": "police", "name": "Abschnitt 11" }, "geometry": { "type": "Point", "coordinates": [ 13.289119, 52.5824326 ] } },
{ "type": "Feature", "properties": { "amenity": "police", "name": "Abschnitt 53 Kreuzberg-Nord" }, "geometry": { "type": "Point", "coordinates": [ 13.3905699, 52.5049589 ] } },
{ "type": "Feature", "properties": { "amenity": "police", "name": "Polizei Abschnitt 46" }, "geometry": { "type": "Point", "coordinates": [ 13.3475906, 52.4276915 ] } },
{ "type": "Feature", "properties": { "amenity": "police", "name": "Abschnitt 22" }, "geometry": { "type": "Point", "coordinates": [ 13.2269115, 52.5280167 ] } },
{ "type": "Feature", "properties": { "amenity": "police", "name": "Abschnitt 55" }, "geometry": { "type": "Point", "coordinates": [ 13.4347588, 52.479156 ] } },
{ "type": "Feature", "properties": { "amenity": "police", "name": "Bundeskriminalamt Sicherungsgruppe Berlin" }, "geometry": { "type": "Point", "coordinates": [ 13.454484, 52.4910067 ] } },
{ "type": "Feature", "properties": { "amenity": "police", "name": "Gemeinsames Terrorismusabwehrzentrum" }, "geometry": { "type": "Point", "coordinates": [ 13.4545527, 52.4927836 ] } },
{ "type": "Feature", "properties": { "amenity": "police", "name": "Wasserschutzpolizei Wache 4" }, "geometry": { "type": "Point", "coordinates": [ 13.4957713, 52.4712681 ] } },
{ "type": "Feature", "properties": { "amenity": "police", "name": "Polizeidirektion 3 - Abschnitt 31" }, "geometry": { "type": "Point", "coordinates": [ 13.3987395, 52.532398899999983 ] } },
{ "type": "Feature", "properties": { "amenity": "police", "name": "Polizeidirektion 2 - Abschnitt 24" }, "geometry": { "type": "Point", "coordinates": [ 13.295745, 52.511287 ] } },
{ "type": "Feature", "properties": { "amenity": "police", "name": "Direktion 5" }, "geometry": { "type": "Point", "coordinates": [ 13.4006405, 52.4844543 ] } },
{ "type": "Feature", "properties": { "amenity": "police", "name": "Polizeidirektion 1 - Abschnitt 15" }, "geometry": { "type": "Point", "coordinates": [ 13.4067095, 52.5409254 ] } },
{ "type": "Feature", "properties": { "amenity": "police", "name": "Abschnitt 56" }, "geometry": { "type": "Point", "coordinates": [ 13.4783085, 52.419450899999987 ] } },
{ "type": "Feature", "properties": { "amenity": "police", "name": "Wasserschutzpolizei West" }, "geometry": { "type": "Point", "coordinates": [ 13.2249803, 52.5640711 ] } },
{ "type": "Feature", "properties": { "amenity": "police", "name": "Polizeipräsidium Berlin" }, "geometry": { "type": "Point", "coordinates": [ 13.3870044, 52.482947 ] } },
{ "type": "Feature", "properties": { "amenity": "police", "name": "Abschnitt 45" }, "geometry": { "type": "Point", "coordinates": [ 13.3063404, 52.4434586 ] } },
{ "type": "Feature", "properties": { "amenity": "police", "name": "Bundespolizei" }, "geometry": { "type": "Point", "coordinates": [ 13.4974242, 52.5093037 ] } },
{ "type": "Feature", "properties": { "amenity": "police", "name": "Bundespolizei" }, "geometry": { "type": "Point", "coordinates": [ 13.3338634, 52.5085099 ] } },
{ "type": "Feature", "properties": { "amenity": "police", "name": "Stadionwache" }, "geometry": { "type": "Point", "coordinates": [ 13.238435, 52.513314 ] } },
{ "type": "Feature", "properties": { "amenity": "police", "name": "Polizei Berlin Abschnitt 32" }, "geometry": { "type": "Point", "coordinates": [ 13.4156959, 52.524282 ] } },
{ "type": "Feature", "properties": { "amenity": "police", "name": "Polizei Berlin Abschnitt 16" }, "geometry": { "type": "Point", "coordinates": [ 13.4523417, 52.5379765 ] } },
{ "type": "Feature", "properties": { "amenity": "police", "name": "Abschnitt 34" }, "geometry": { "type": "Point", "coordinates": [ 13.3659377, 52.5220276 ] } },
{ "type": "Feature", "properties": { "amenity": "police", "name": "Abschnitt 12" }, "geometry": { "type": "Point", "coordinates": [ 13.3258878, 52.58724 ] } },
{ "type": "Feature", "properties": { "amenity": "police", "name": "Polizeidirektion 6, Abschnitt 66" }, "geometry": { "type": "Point", "coordinates": [ 13.5796589, 52.442396 ] } },
{ "type": "Feature", "properties": { "amenity": "police", "name": "Direktionshundertschaft 1" }, "geometry": { "type": "Point", "coordinates": [ 13.2446746, 52.6171547 ] } },
{ "type": "Feature", "properties": { "amenity": "police", "name": "Bundespolizei" }, "geometry": { "type": "Point", "coordinates": [ 13.4353317, 52.5094753 ] } },
{ "type": "Feature", "properties": { "amenity": "police", "name": "Direktion 6" }, "geometry": { "type": "Point", "coordinates": [ 13.5378808, 52.5352048 ] } },
{ "type": "Feature", "properties": { "amenity": "police", "name": null }, "geometry": { "type": "Point", "coordinates": [ 13.2928029, 52.5545306 ] } },
{ "type": "Feature", "properties": { "amenity": "police", "name": "Zentrale Serviceeinheit" }, "geometry": { "type": "Point", "coordinates": [ 13.4161848, 52.5247312 ] } },
{ "type": "Feature", "properties": { "amenity": "police", "name": "Polizei Berlin Abschnitt 51" }, "geometry": { "type": "Point", "coordinates": [ 13.444588, 52.5122072 ] } },
{ "type": "Feature", "properties": { "amenity": "police", "name": "Direktion 3" }, "geometry": { "type": "Point", "coordinates": [ 13.36226580513503, 52.523806529603561 ] } },
{ "type": "Feature", "properties": { "amenity": "police", "name": "Wasserschutzpolizeiwache 2 Mitte" }, "geometry": { "type": "Point", "coordinates": [ 13.317379102077995, 52.522031298984899 ] } },
{ "type": "Feature", "properties": { "amenity": "police", "name": "Polizeidirektion 2" }, "geometry": { "type": "Point", "coordinates": [ 13.226917459982136, 52.5270287602794 ] } },
{ "type": "Feature", "properties": { "amenity": "police", "name": null }, "geometry": { "type": "Point", "coordinates": [ 13.387240796674261, 52.482413400979901 ] } },
{ "type": "Feature", "properties": { "amenity": "police", "name": null }, "geometry": { "type": "Point", "coordinates": [ 13.348512746296118, 52.486379136378332 ] } },
{ "type": "Feature", "properties": { "amenity": "police", "name": "Abschnitt 42" }, "geometry": { "type": "Point", "coordinates": [ 13.3498045255128, 52.483609196930828 ] } },
{ "type": "Feature", "properties": { "amenity": "police", "name": null }, "geometry": { "type": "Point", "coordinates": [ 13.28902878436601, 52.582408625093208 ] } },
{ "type": "Feature", "properties": { "amenity": "police", "name": "Polizeidirektion 2 - Abschnitt 21" }, "geometry": { "type": "Point", "coordinates": [ 13.199953084867419, 52.53922943068158 ] } },
{ "type": "Feature", "properties": { "amenity": "police", "name": "LKA" }, "geometry": { "type": "Point", "coordinates": [ 13.347222367926738, 52.504662472571944 ] } },
{ "type": "Feature", "properties": { "amenity": "police", "name": "Polizei Direktion 4" }, "geometry": { "type": "Point", "coordinates": [ 13.351215905290223, 52.426809439712486 ] } },
{ "type": "Feature", "properties": { "amenity": "police", "name": "Landeskriminalamt Berlin" }, "geometry": { "type": "Point", "coordinates": [ 13.385134512773895, 52.482451645053551 ] } },
{ "type": "Feature", "properties": { "amenity": "police", "name": "Bundespolizeipräsidium Außenstelle Berlin" }, "geometry": { "type": "Point", "coordinates": [ 13.502042146882474, 52.463017365761083 ] } },
{ "type": "Feature", "properties": { "amenity": "police", "name": null }, "geometry": { "type": "Point", "coordinates": [ 13.375555700197042, 52.548324469236775 ] } },
{ "type": "Feature", "properties": { "amenity": "police", "name": "Polizeidirektion 3 - Abschnitt 36" }, "geometry": { "type": "Point", "coordinates": [ 13.375313402931853, 52.548071381026027 ] } },
{ "type": "Feature", "properties": { "amenity": "police", "name": "Polizeidirektion 1, Abschnitt 12" }, "geometry": { "type": "Point", "coordinates": [ 13.326701728774408, 52.587220123221392 ] } },
{ "type": "Feature", "properties": { "amenity": "police", "name": "Halle A4" }, "geometry": { "type": "Point", "coordinates": [ 13.243373109806738, 52.618281261123897 ] } },
{ "type": "Feature", "properties": { "amenity": "police", "name": "Direktion 2 - Abschnitt 23" }, "geometry": { "type": "Point", "coordinates": [ 13.187856318192731, 52.522198245952005 ] } },
{ "type": "Feature", "properties": { "amenity": "police", "name": "Polizeiabschnitt 52" }, "geometry": { "type": "Point", "coordinates": [ 13.395338429406863, 52.486283851854274 ] } },
{ "type": "Feature", "properties": { "amenity": "police", "name": "Polizeidirektion 4 - Abschnitt 47" }, "geometry": { "type": "Point", "coordinates": [ 13.407484678321323, 52.394198726962109 ] } },
{ "type": "Feature", "properties": { "amenity": "police", "name": "Polizei Berlin Abschnitt 62 (Marzahn)" }, "geometry": { "type": "Point", "coordinates": [ 13.563144216345817, 52.528292513953055 ] } },
{ "type": "Feature", "properties": { "amenity": "police", "name": "Polizei-Übungsanlage" }, "geometry": { "type": "Point", "coordinates": [ 13.167725584745948, 52.558804987650667 ] } },
{ "type": "Feature", "properties": { "amenity": "police", "name": "Direktion 4, Abschnitt 44" }, "geometry": { "type": "Point", "coordinates": [ 13.387353983140853, 52.464392295302495 ] } },
{ "type": "Feature", "properties": { "amenity": "police", "name": "Bundespolizei" }, "geometry": { "type": "Point", "coordinates": [ 13.368603382139137, 52.525503310171487 ] } },
{ "type": "Feature", "properties": { "amenity": "police", "name": "Bereitschaftspolizei" }, "geometry": { "type": "Point", "coordinates": [ 13.355370045857637, 52.533199309122857 ] } },
{ "type": "Feature", "properties": { "amenity": "police", "name": "Wasserschutzpolizei West" }, "geometry": { "type": "Point", "coordinates": [ 13.1725882, 52.4461768 ] } },
{ "type": "Feature", "properties": { "amenity": "police", "name": "Polizeidirektion 5 Abschnitt 54" }, "geometry": { "type": "Point", "coordinates": [ 13.440813419831734, 52.481781779834336 ] } },
{ "type": "Feature", "properties": { "amenity": "police", "name": "Direktion 1 Referat Verbrechensbekämpfung" }, "geometry": { "type": "Point", "coordinates": [ 13.37636680805832, 52.547626964834592 ] } },
{ "type": "Feature", "properties": { "amenity": "police", "name": "Direktion 6 Verkehrsermittlungsdienst" }, "geometry": { "type": "Point", "coordinates": [ 13.550174895821504, 52.436652300406585 ] } },
{ "type": "Feature", "properties": { "amenity": "police", "name": "Abschnitt 43" }, "geometry": { "type": "Point", "coordinates": [ 13.19496973952675, 52.431644892666235 ] } },
{ "type": "Feature", "properties": { "amenity": "police", "name": "Abschnitt 41" }, "geometry": { "type": "Point", "coordinates": [ 13.347542240635313, 52.488694820736747 ] } },
{ "type": "Feature", "properties": { "amenity": "police", "name": "Abschnitt 13" }, "geometry": { "type": "Point", "coordinates": [ 13.414983890514222, 52.569816732275541 ] } },
{ "type": "Feature", "properties": { "amenity": "police", "name": "Polizeidirektion 3 - Abschnitt 35" }, "geometry": { "type": "Point", "coordinates": [ 13.360634305018953, 52.55274217909755 ] } },
{ "type": "Feature", "properties": { "amenity": "police", "name": "Polizei Berlin Abschnitt 63" }, "geometry": { "type": "Point", "coordinates": [ 13.59115365780556, 52.515195779196858 ] } },
{ "type": "Feature", "properties": { "amenity": "police", "name": "Polizeidirektion 5" }, "geometry": { "type": "Point", "coordinates": [ 13.394682374214922, 52.485849341564965 ] } },
{ "type": "Feature", "properties": { "amenity": "police", "name": "Bundeskriminalamt" }, "geometry": { "type": "Point", "coordinates": [ 13.454359504697694, 52.491772478072143 ] } },
{ "type": "Feature", "properties": { "amenity": "police", "name": null }, "geometry": { "type": "Point", "coordinates": [ 13.467338797237788, 52.557423928560027 ] } },
{ "type": "Feature", "properties": { "amenity": "police", "name": "Bundespolizei" }, "geometry": { "type": "Point", "coordinates": [ 13.385868572088217, 52.520349206817087 ] } },
{ "type": "Feature", "properties": { "amenity": "police", "name": "Abschnitt 65" }, "geometry": { "type": "Point", "coordinates": [ 13.474083300720876, 52.481407569060089 ] } },
{ "type": "Feature", "properties": { "amenity": "police", "name": null }, "geometry": { "type": "Point", "coordinates": [ 13.4177101, 52.49603535 ] } },
{ "type": "Feature", "properties": { "amenity": "police", "name": null }, "geometry": { "type": "Point", "coordinates": [ 13.319055369049133, 52.511953580305317 ] } },
{ "type": "Feature", "properties": { "amenity": "police", "name": "Bundespolizei" }, "geometry": { "type": "Point", "coordinates": [ 13.365014394271389, 52.47682494251066 ] } },
{ "type": "Feature", "properties": { "amenity": "police", "name": "Polizei Direktion 6 - Abschnitt 61" }, "geometry": { "type": "Point", "coordinates": [ 13.51510000765294, 52.566106003439657 ] } }
]
}
